ONEWEB-0217             
1 48245U 21031AM  25346.19406780 -.00000075  00000+0 -23651-3 0  9998
2 48245  87.9004 326.9428 0001655  75.8970 284.2344 13.14503547223614
ONEWEB-0211             
1 48767U 21045A   25346.25373981  .00000140  00000+0  33455-3 0  9999
2 48767  87.8999 296.4189 0001909  64.5173 295.6155 13.16137425219859
ONEWEB-0223             
1 48768U 21045B   25346.24436266  .00000187  00000+0  46284-3 0  9990
2 48768  87.8997 296.4848 0002147  68.8184 291.3175 13.15548288219828
ONEWEB-0230             
1 48769U 21045C   25346.29189005  .00000008  00000+0 -12994-4 0  9997
2 48769  87.8991 296.5053 0001852  83.5277 276.6064 13.15549860220092
ONEWEB-0237             
1 48770U 21045D   25346.28079996 -.00000080  00000+0 -24605-3 0  9997
2 48770  87.8992 296.5077 0002062  74.8108 285.3251 13.15549562219813
ONEWEB-0235             
1 48771U 21045E   25346.25544589  .00000116  00000+0  27407-3 0  9991
2 48771  87.8998 296.4836 0002177  69.5695 290.5669 13.15549382219801
ONEWEB-0242             
1 48772U 21045F   25346.24911219  .00000200  00000+0  49800-3 0  9994
2 48772  87.9004 296.4785 0002018  79.1374 280.9984 13.15549669219844
ONEWEB-0241             
1 48773U 21045G   25346.23641548  .00000137  00000+0  32883-3 0  9991
2 48773  87.8990 296.5185 0001922  65.5001 294.6330 13.15548917219754
ONEWEB-0243             
1 48774U 21045H   25346.26812404 -.00000060  00000+0 -19408-3 0  9991
2 48774  87.8995 296.5218 0002228  76.2025 283.9353 13.15549011219787
ONEWEB-0222             
1 48775U 21045J   25346.25148125  .00000186  00000+0  46053-3 0  9996
2 48775  87.8998 296.4787 0001908  75.8132 284.3210 13.15547325219827
ONEWEB-0244             
1 48776U 21045K   25346.27763029 -.00000079  00000+0 -24454-3 0  9999
2 48776  87.9007 296.4605 0001953  76.5730 283.5618 13.15549797220393
ONEWEB-0247             
1 48777U 21045L   25346.27446461 -.00000042  00000+0 -14666-3 0  9992
2 48777  87.8989 296.5180 0002739  70.1777 289.9649 13.15549113219838
ONEWEB-0245             
1 48778U 21045M   25346.26971052 -.00000062  00000+0 -19896-3 0  9993
2 48778  87.8991 296.4831 0001785  71.1030 289.0293 13.15549200219807
ONEWEB-0229             
1 48779U 21045N   25346.26495552  .00000040  00000+0  71962-4 0  9997
2 48779  87.8988 296.4826 0001985  79.1367 280.9987 13.15548631219831
ONEWEB-0228             
1 48780U 21045P   25346.29836479  .00000105  00000+0  24416-3 0  9992
2 48780  87.8998 296.4597 0001897  76.5338 283.6004 13.15547684219758
ONEWEB-0232             
1 48781U 21045Q   25346.27288576 -.00000049  00000+0 -16429-3 0  9994
2 48781  87.9008 296.4575 0001874  78.0459 282.0881 13.15548638220077
