[{"OBJECT_NAME":"ONEWEB-0217","OBJECT_ID":"2021-031AM","EPOCH":"2025-12-12T04:39:27.457920","MEAN_MOTION":13.14503547,"ECCENTRICITY":0.00016557,"INCLINATION":87.9004,"RA_OF_ASC_NODE":326.9428,"ARG_OF_PERICENTER":75.897,"MEAN_ANOMALY":284.2344,"EPHEMERIS_TYPE":0,"CLASSIFICATION_TYPE":"U","NORAD_CAT_ID":48245,"ELEMENT_SET_NO":999,"REV_AT_EPOCH":22361,"BSTAR":-0.00023651461,"MEAN_MOTION_DOT":-7.5e-7,"MEAN_MOTION_DDOT":0},{"OBJECT_NAME":"ONEWEB-0211","OBJECT_ID":"2021-045A","EPOCH":"2025-12-12T06:05:23.119584","MEAN_MOTION":13.16137425,"ECCENTRICITY":0.00019096,"INCLINATION":87.8999,"RA_OF_ASC_NODE":296.4189,"ARG_OF_PERICENTER":64.5173,"MEAN_ANOMALY":295.6155,"EPHEMERIS_TYPE":0,"CLASSIFICATION_TYPE":"U","NORAD_CAT_ID":48767,"ELEMENT_SET_NO":999,"REV_AT_EPOCH":21985,"BSTAR":0.00033454883,"MEAN_MOTION_DOT":1.4e-6,"MEAN_MOTION_DDOT":0},{"OBJECT_NAME":"ONEWEB-0223","OBJECT_ID":"2021-045B","EPOCH":"2025-12-12T05:51:52.933824","MEAN_MOTION":13.15548288,"ECCENTRICITY":0.0002147,"INCLINATION":87.8997,"RA_OF_ASC_NODE":296.4848,"ARG_OF_PERICENTER":68.8184,"MEAN_ANOMALY":291.3175,"EPHEMERIS_TYPE":0,"CLASSIFICATION_TYPE":"U","NORAD_CAT_ID":48768,"ELEMENT_SET_NO":999,"REV_AT_EPOCH":21982,"BSTAR":0.00046284467,"MEAN_MOTION_DOT":1.87e-6,"MEAN_MOTION_DDOT":0},{"OBJECT_NAME":"ONEWEB-0230","OBJECT_ID":"2021-045C","EPOCH":"2025-12-12T07:00:19.300320","MEAN_MOTION":13.1554986,"ECCENTRICITY":0.00018528,"INCLINATION":87.8991,"RA_OF_ASC_NODE":296.5053,"ARG_OF_PERICENTER":83.5277,"MEAN_ANOMALY":276.6064,"EPHEMERIS_TYPE":0,"CLASSIFICATION_TYPE":"U","NORAD_CAT_ID":48769,"ELEMENT_SET_NO":999,"REV_AT_EPOCH":22009,"BSTAR":-1.2993944e-5,"MEAN_MOTION_DOT":8.0e-8,"MEAN_MOTION_DDOT":0},{"OBJECT_NAME":"ONEWEB-0237","OBJECT_ID":"2021-045D","EPOCH":"2025-12-12T06:44:21.116544","MEAN_MOTION":13.15549562,"ECCENTRICITY":0.00020629,"INCLINATION":87.8992,"RA_OF_ASC_NODE":296.5077,"ARG_OF_PERICENTER":74.8108,"MEAN_ANOMALY":285.3251,"EPHEMERIS_TYPE":0,"CLASSIFICATION_TYPE":"U","NORAD_CAT_ID":48770,"ELEMENT_SET_NO":999,"REV_AT_EPOCH":21981,"BSTAR":-0.00024604624,"MEAN_MOTION_DOT":-8.0e-7,"MEAN_MOTION_DDOT":0},{"OBJECT_NAME":"ONEWEB-0235","OBJECT_ID":"2021-045E","EPOCH":"2025-12-12T06:07:50.524896","MEAN_MOTION":13.15549382,"ECCENTRICITY":0.00021778,"INCLINATION":87.8998,"RA_OF_ASC_NODE":296.4836,"ARG_OF_PERICENTER":69.5695,"MEAN_ANOMALY":290.5669,"EPHEMERIS_TYPE":0,"CLASSIFICATION_TYPE":"U","NORAD_CAT_ID":48771,"ELEMENT_SET_NO":999,"REV_AT_EPOCH":21980,"BSTAR":0.00027407388,"MEAN_MOTION_DOT":1.16e-6,"MEAN_MOTION_DDOT":0},{"OBJECT_NAME":"ONEWEB-0242","OBJECT_ID":"2021-045F","EPOCH":"2025-12-12T05:58:43.293216","MEAN_MOTION":13.15549669,"ECCENTRICITY":0.00020189,"INCLINATION":87.9004,"RA_OF_ASC_NODE":296.4785,"ARG_OF_PERICENTER":79.1374,"MEAN_ANOMALY":280.9984,"EPHEMERIS_TYPE":0,"CLASSIFICATION_TYPE":"U","NORAD_CAT_ID":48772,"ELEMENT_SET_NO":999,"REV_AT_EPOCH":21984,"BSTAR":0.0004980019,"MEAN_MOTION_DOT":2.0e-6,"MEAN_MOTION_DDOT":0},{"OBJECT_NAME":"ONEWEB-0241","OBJECT_ID":"2021-045G","EPOCH":"2025-12-12T05:40:26.297472","MEAN_MOTION":13.15548917,"ECCENTRICITY":0.00019229,"INCLINATION":87.899,"RA_OF_ASC_NODE":296.5185,"ARG_OF_PERICENTER":65.5001,"MEAN_ANOMALY":294.633,"EPHEMERIS_TYPE":0,"CLASSIFICATION_TYPE":"U","NORAD_CAT_ID":48773,"ELEMENT_SET_NO":999,"REV_AT_EPOCH":21975,"BSTAR":0.00032883365,"MEAN_MOTION_DOT":1.37e-6,"MEAN_MOTION_DDOT":0},{"OBJECT_NAME":"ONEWEB-0243","OBJECT_ID":"2021-045H","EPOCH":"2025-12-12T06:26:05.917056","MEAN_MOTION":13.15549011,"ECCENTRICITY":0.00022287,"INCLINATION":87.8995,"RA_OF_ASC_NODE":296.5218,"ARG_OF_PERICENTER":76.2025,"MEAN_ANOMALY":283.9353,"EPHEMERIS_TYPE":0,"CLASSIFICATION_TYPE":"U","NORAD_CAT_ID":48774,"ELEMENT_SET_NO":999,"REV_AT_EPOCH":21978,"BSTAR":-0.00019408182,"MEAN_MOTION_DOT":-6.0e-7,"MEAN_MOTION_DDOT":0},{"OBJECT_NAME":"ONEWEB-0222","OBJECT_ID":"2021-045J","EPOCH":"2025-12-12T06:02:07.980000","MEAN_MOTION":13.15547325,"ECCENTRICITY":0.00019083,"INCLINATION":87.8998,"RA_OF_ASC_NODE":296.4787,"ARG_OF_PERICENTER":75.8132,"MEAN_ANOMALY":284.321,"EPHEMERIS_TYPE":0,"CLASSIFICATION_TYPE":"U","NORAD_CAT_ID":48775,"ELEMENT_SET_NO":999,"REV_AT_EPOCH":21982,"BSTAR":0.00046052622,"MEAN_MOTION_DOT":1.86e-6,"MEAN_MOTION_DDOT":0},{"OBJECT_NAME":"ONEWEB-0244","OBJECT_ID":"2021-045K","EPOCH":"2025-12-12T06:39:47.257056","MEAN_MOTION":13.15549797,"ECCENTRICITY":0.00019534,"INCLINATION":87.9007,"RA_OF_ASC_NODE":296.4605,"ARG_OF_PERICENTER":76.573,"MEAN_ANOMALY":283.5618,"EPHEMERIS_TYPE":0,"CLASSIFICATION_TYPE":"U","NORAD_CAT_ID":48776,"ELEMENT_SET_NO":999,"REV_AT_EPOCH":22039,"BSTAR":-0.00024453714,"MEAN_MOTION_DOT":-7.9e-7,"MEAN_MOTION_DDOT":0},{"OBJECT_NAME":"ONEWEB-0247","OBJECT_ID":"2021-045L","EPOCH":"2025-12-12T06:35:13.742304","MEAN_MOTION":13.15549113,"ECCENTRICITY":0.00027397,"INCLINATION":87.8989,"RA_OF_ASC_NODE":296.518,"ARG_OF_PERICENTER":70.1777,"MEAN_ANOMALY":289.9649,"EPHEMERIS_TYPE":0,"CLASSIFICATION_TYPE":"U","NORAD_CAT_ID":48777,"ELEMENT_SET_NO":999,"REV_AT_EPOCH":21983,"BSTAR":-0.00014666136,"MEAN_MOTION_DOT":-4.2e-7,"MEAN_MOTION_DDOT":0},{"OBJECT_NAME":"ONEWEB-0245","OBJECT_ID":"2021-045M","EPOCH":"2025-12-12T06:28:22.988928","MEAN_MOTION":13.155492,"ECCENTRICITY":0.00017852,"INCLINATION":87.8991,"RA_OF_ASC_NODE":296.4831,"ARG_OF_PERICENTER":71.103,"MEAN_ANOMALY":289.0293,"EPHEMERIS_TYPE":0,"CLASSIFICATION_TYPE":"U","NORAD_CAT_ID":48778,"ELEMENT_SET_NO":999,"REV_AT_EPOCH":21980,"BSTAR":-0.00019896374,"MEAN_MOTION_DOT":-6.2e-7,"MEAN_MOTION_DDOT":0},{"OBJECT_NAME":"ONEWEB-0229","OBJECT_ID":"2021-045N","EPOCH":"2025-12-12T06:21:32.156928","MEAN_MOTION":13.15548631,"ECCENTRICITY":0.00019852,"INCLINATION":87.8988,"RA_OF_ASC_NODE":296.4826,"ARG_OF_PERICENTER":79.1367,"MEAN_ANOMALY":280.9987,"EPHEMERIS_TYPE":0,"CLASSIFICATION_TYPE":"U","NORAD_CAT_ID":48779,"ELEMENT_SET_NO":999,"REV_AT_EPOCH":21983,"BSTAR":7.1961806e-5,"MEAN_MOTION_DOT":4.0e-7,"MEAN_MOTION_DDOT":0},{"OBJECT_NAME":"ONEWEB-0228","OBJECT_ID":"2021-045P","EPOCH":"2025-12-12T07:09:38.717856","MEAN_MOTION":13.15547684,"ECCENTRICITY":0.00018975,"INCLINATION":87.8998,"RA_OF_ASC_NODE":296.4597,"ARG_OF_PERICENTER":76.5338,"MEAN_ANOMALY":283.6004,"EPHEMERIS_TYPE":0,"CLASSIFICATION_TYPE":"U","NORAD_CAT_ID":48780,"ELEMENT_SET_NO":999,"REV_AT_EPOCH":21975,"BSTAR":0.00024415707,"MEAN_MOTION_DOT":1.05e-6,"MEAN_MOTION_DDOT":0},{"OBJECT_NAME":"ONEWEB-0232","OBJECT_ID":"2021-045Q","EPOCH":"2025-12-12T06:32:57.329664","MEAN_MOTION":13.15548638,"ECCENTRICITY":0.00018745,"INCLINATION":87.9008,"RA_OF_ASC_NODE":296.4575,"ARG_OF_PERICENTER":78.0459,"MEAN_ANOMALY":282.0881,"EPHEMERIS_TYPE":0,"CLASSIFICATION_TYPE":"U","NORAD_CAT_ID":48781,"ELEMENT_SET_NO":999,"REV_AT_EPOCH":22007,"BSTAR":-0.00016428854,"MEAN_MOTION_DOT":-4.9e-7,"MEAN_MOTION_DDOT":0}]
